CAS-2T & KS-1Q          
1 41847U 16066G   21009.77888152  .00000046  00000-0  17934-4 0  9999
2 41847  98.6264  68.0603 0364913 334.0406  24.2865 14.38134542219071
NAYIF-1 (EO-88)         
1 42017U 17008BX  21009.72933246  .00001837  00000-0  71325-4 0  9999
2 42017  97.3378  80.0925 0004892 324.3564  35.7348 15.27343796217026
ZHUHAI-1 02 (CAS-4B)    
1 42759U 17034B   21010.14366348  .00000489  00000-0  42907-4 0  9998
2 42759  43.0183 331.2935 0010635 257.6689 172.9818 15.10037700197212
ZHUHAI-1 01 (CAS-4A)    
1 42761U 17034D   21010.14335322  .00000495  00000-0  43198-4 0  9999
2 42761  43.0194 330.4594 0011260 257.8902 173.3081 15.10118269197211
MAX VALIER SAT          
1 42778U 17036P   21009.73652388  .00001046  00000-0  47141-4 0  9991
2 42778  97.2789  63.3896 0012488  23.8735 336.3079 15.23125139197121
RADFXSAT (FOX-1B)       
1 43017U 17073E   21009.79502112  .00000538  00000-0  46288-4 0  9990
2 43017  97.7172 280.0001 0257369  97.8097 265.2414 14.79247925169665
FOX-1D (AO-92)          
1 43137U 18004AC  21009.73694226  .00001281  00000-0  54654-4 0  9992
2 43137  97.4256  85.3104 0010251  56.7613 303.4605 15.24700862166471
DIWATA-2B               
1 43678U 18084H   21010.21713616 -.00000217  00000-0 -15826-4 0  9998
2 43678  97.9045 134.9083 0009288 205.7546 154.3258 14.91692629119848
ES'HAIL 2               
1 43700U 18090A   21010.14903722  .00000146  00000-0  00000+0 0  9994
2 43700   0.0186  79.8833 0001585 255.3133 214.1195  1.00272452  8026
FOX-1CLIFF (AO-95)      
1 43770U 18099N   21009.78199674 -.00000015  00000-0  38016-5 0  9991
2 43770  97.6852  83.3355 0013619 224.0692 135.9445 14.95163108114748
ITASAT 1                
1 43786U 18099AE  21009.80044180  .00000479  00000-0  48374-4 0  9992
2 43786  97.6868  83.9206 0014421 216.7078 143.3157 14.95477627114771
JY1SAT (JO-97)          
1 43803U 18099AX  21009.72172367  .00000148  00000-0  18429-4 0  9993
2 43803  97.6829  83.6184 0014390 217.4850 142.5369 14.95690191114769
PSAT2 (NO-104)          
1 44354U 19036R   21009.60320016  .00009390  00000-0  12814-3 0  9999
2 44354  28.5295 102.3254 0343741 359.9589   0.0941 15.08779436 84927
BRICSAT2 (NO-103)       
1 44355U 19036S   21009.58212130  .00017748  00000-0  21832-3 0  9990
2 44355  28.5281  78.5544 0303398  38.6492 323.5410 15.19306250 85160
JAISAT-1                
1 44419U 19038F   21009.83563400  .00001140  00000-0  67474-4 0  9992
2 44419  97.5674 335.3975 0022324 135.9228 224.3787 15.13283759 83806
DUCHIFAT-3              
1 44854U 19089C   21010.16759066  .00000541  00000-0  49891-4 0  9991
2 44854  36.9670 316.5489 0009079 296.9719  63.0099 14.99288675 59338
RS-44 & BREEZE-KM R/B   
1 44909U 19096E   21009.68279841  .00000030  00000-0  65705-4 0  9998
2 44909  82.5196 218.2822 0218341 104.2845 258.2608 12.79708151 48562
ORBITAL FACTORY 2 (OF-2)
1 45113U 19071C   21009.63310390  .00002181  00000-0  75317-4 0  9998
2 45113  51.6434  86.8509 0012949  80.3409 279.9036 15.34558961 52778
HUSKYSAT-1              
1 45119U 19071J   21009.58711572  .00001545  00000-0  56473-4 0  9990
2 45119  51.6430  86.5428 0012278  76.8241 283.4110 15.34683457 52767
BY70-2                  
1 45857U 20042B   21010.09954399  .00001028  00000-0  15446-3 0  9993
2 45857  97.9988  87.4520 0010688  11.5224 348.6235 14.76611271 28170
SALSAT                  
1 46495U 20068K   21009.91993781 -.00000122  00000-0 -44126-5 0  9992
2 46495  97.6785 308.5054 0015639 248.7103 111.2457 15.03307217 15518
BY70-3                  
1 46839U 20079N   21010.23525811  .00002970  00000-0  96615-4 0  9998
2 46839  97.2585  87.2152 0008834  60.9801  14.4078 15.32622070  9966
OSCAR 7 (AO-7)          
1 07530U 74089B   21009.84610512 -.00000033  00000-0  79888-4 0  9993
2 07530 101.8323 344.6598 0012199 328.2213  95.8134 12.53646882111858
